NORAD_CAT_ID,OBJECT_NAME,OBJECT_TYPE,EPOCH,MEAN_MOTION,ECCENTRICITY,INCLINATION,RA_OF_ASC_NODE,ARG_OF_PERICENTER,MEAN_ANOMALY,BSTAR,MEAN_MOTION_DOT,MEAN_MOTION_DDOT,TLE_LINE0,TLE_LINE1,TLE_LINE2,SEMIMAJOR_AXIS,PERIOD,APOGEE,PERIGEE,DECAYED
49158.0,STARLINK-3083,PAYLOAD,2022-11-07 16:22:56,14.98316556,0.000313,69.9988,105.4865,255.4181,104.6631,-4.8792e-05,-6.75e-06,0.0,0 STARLINK-3083,1 49158U 21082AE  22311.68259723 -.00000675  00000-0 -48792-4 0  9995,2 49158  69.9988 105.4865 0003130 255.4181 104.6631 14.98316556 65123,6950.234,96.108,574.275,569.924,0.0
49158.0,STARLINK-3083,PAYLOAD,2022-11-08 03:35:52,14.98324134,0.0003155,69.9992,104.3082,256.6018,103.4789,2.4608e-06,-6.4e-07,0.0,0 STARLINK-3083,1 49158U 21082AE  22312.14991295 -.00000064  00000-0  24608-5 0  9996,2 49158  69.9992 104.3082 0003155 256.6018 103.4789 14.98324134 65195,6950.2109999999975,96.107,574.269,569.883,0.0
49158.0,STARLINK-3083,PAYLOAD,2022-11-08 16:24:56,14.98327287,0.0003362,69.9992,102.9613,257.4635,102.6148,0.00011725,1.306e-05,0.0,0 STARLINK-3083,1 49158U 21082AE  22312.68398573  .00001306  00000-0  11725-3 0  9998,2 49158  69.9992 102.9613 0003362 257.4635 102.6148 14.98327287 65274,6950.201,96.107,574.403,569.73,0.0
49158.0,STARLINK-3083,PAYLOAD,2022-11-08 19:37:12,14.98328909,0.0003347,69.9992,102.6246,257.4804,102.598,0.00013618,1.532e-05,0.0,0 STARLINK-3083,1 49158U 21082AE  22312.81750507  .00001532  00000-0  13618-3 0  9996,2 49158  69.9992 102.6246 0003347 257.4804 102.5980 14.98328909 65291,6950.196,96.107,574.387,569.735,0.0
49158.0,STARLINK-3083,PAYLOAD,2022-11-09 14:50:49,14.98319737,0.0003466,69.9968,100.6009,255.2011,104.8764,9.6222e-05,1.055e-05,0.0,0 STARLINK-3083,1 49158U 21082AE  22313.61863296  .00001055  00000-0  96222-4 0  9998,2 49158  69.9968 100.6009 0003466 255.2011 104.8764 14.98319737 65415,6950.225,96.108,574.499,569.681,0.0
49158.0,STARLINK-3083,PAYLOAD,2022-11-09 19:39:15,14.98308254,0.0003409,69.999,100.0998,257.8944,102.1833,2.6686e-05,2.25e-06,0.0,0 STARLINK-3083,1 49158U 21082AE  22313.81892573  .00000225  00000-0  26686-4 0  9995,2 49158  69.9990 100.0998 0003409 257.8944 102.1833 14.98308254 65444,6950.26,96.108,574.494,569.756,0.0
49158.0,STARLINK-3083,PAYLOAD,2022-11-10 13:16:43,14.98316678,0.0003435,70.0004,98.2481,258.9676,101.1097,-5.596e-05,-7.6e-06,0.0,0 STARLINK-3083,1 49158U 21082AE  22314.55328453 -.00000760  00000-0 -55960-4 0  9991,2 49158  70.0004  98.2481 0003435 258.9676 101.1097 14.98316678 65553,6950.234,96.108,574.486,569.712,0.0
49158.0,STARLINK-3083,PAYLOAD,2022-11-10 18:05:07,14.98319824,0.0003441,70.0007,97.7433,259.296,100.7811,-1.6685e-05,-2.92e-06,0.0,0 STARLINK-3083,1 49158U 21082AE  22314.75356477 -.00000292  00000-0 -16685-4 0  9991,2 49158  70.0007  97.7433 0003441 259.2960 100.7811 14.98319824 65582,6950.224,96.108,574.481,569.698,0.0
49158.0,STARLINK-3083,PAYLOAD,2022-11-10 19:41:16,14.983209099999998,0.0003387,70.0006,97.5749,259.1419,100.9359,2.2346e-05,1.74e-06,0.0,0 STARLINK-3083,1 49158U 21082AE  22314.82032508  .00000174  00000-0  22346-4 0  9993,2 49158  70.0006  97.5749 0003387 259.1419 100.9359 14.98320910 65594,6950.221,96.108,574.44,569.732,0.0
49158.0,STARLINK-3083,PAYLOAD,2022-11-11 11:42:37,14.9832426,0.0003462,70.0007,95.8917,258.8621,101.2149,0.00032311,3.764e-05,0.0,0 STARLINK-3083,1 49158U 21082AE  22315.48792913  .00003764  00000-0  32311-3 0  9999,2 49158  70.0007  95.8917 0003462 258.8621 101.2149 14.98324260 65692,6950.2109999999975,96.107,574.482,569.669,0.0
49158.0,STARLINK-3083,PAYLOAD,2022-11-11 18:07:09,14.98330802,0.0003436,70.0014,95.2184,259.5946,100.4826,0.00059513,7.015e-05,0.0,0 STARLINK-3083,1 49158U 21082AE  22315.75497039  .00007015  00000-0  59513-3 0  9996,2 49158  70.0014  95.2184 0003436 259.5946 100.4826 14.98330802 65736,6950.19,96.107,574.443,569.6669999999998,0.0
49158.0,STARLINK-3083,PAYLOAD,2022-11-11 19:43:17,14.98333064,0.000342,70.0014,95.0501,259.5373,100.5401,0.00064221,7.579e-05,0.0,0 STARLINK-3083,1 49158U 21082AE  22315.82173012  .00007579  00000-0  64221-3 0  9993,2 49158  70.0014  95.0501 0003420 259.5373 100.5401 14.98333064 65748,6950.183000000001,96.107,574.425,569.6709999999998,0.0
49158.0,STARLINK-3083,PAYLOAD,2022-11-12 13:20:45,14.98350488,0.0003441,70.0015,93.1987,259.9699,100.1071,0.0007962999999999,9.426e-05,0.0,0 STARLINK-3083,1 49158U 21082AE  22316.55608267  .00009426  00000-0  79630-3 0  9992,2 49158  70.0015  93.1987 0003441 259.9699 100.1071 14.98350488 65854,6950.13,96.106,574.386,569.6030000000002,0.0
49158.0,STARLINK-3083,PAYLOAD,2022-11-12 18:09:09,14.98354018,0.0003426,70.0016,92.6937,260.4148,99.6624,0.00078307,9.269e-05,0.0,0 STARLINK-3083,1 49158U 21082AE  22316.75635973  .00009269  00000-0  78307-3 0  9993,2 49158  70.0016  92.6937 0003426 260.4148  99.6624 14.98354018 65885,6950.119000000002,96.105,574.365,569.6030000000002,0.0
49158.0,STARLINK-3083,PAYLOAD,2022-11-12 19:45:17,14.98354866,0.0003424,70.0016,92.5254,260.4102,99.667,0.00074109,8.767e-05,0.0,0 STARLINK-3083,1 49158U 21082AE  22316.82311838  .00008767  00000-0  74109-3 0  9990,2 49158  70.0016  92.5254 0003424 260.4102  99.6670 14.98354866 65897,6950.116,96.105,574.361,569.601,0.0
49158.0,STARLINK-3083,PAYLOAD,2022-11-13 10:10:29,14.98341048,0.0003347,70.0017,91.0107,259.9982,100.08,-0.00012778,-1.618e-05,0.0,0 STARLINK-3083,1 49158U 21082AE  22317.42395461 -.00001618  00000-0 -12778-3 0  9995,2 49158  70.0017  91.0107 0003347 259.9982 100.0800 14.98341048 65982,6950.159000000002,96.106,574.35,569.698,0.0
49158.0,STARLINK-3083,PAYLOAD,2022-11-13 11:46:37,14.98344586,0.0003528,70.0014,90.842,260.6608,99.4153,0.00014953,1.692e-05,0.0,0 STARLINK-3083,1 49158U 21082AE  22317.49071430  .00001692  00000-0  14953-3 0  9996,2 49158  70.0014  90.8420 0003528 260.6608  99.4153 14.98344586 65992,6950.148,96.106,574.465,569.561,0.0
49158.0,STARLINK-3083,PAYLOAD,2022-11-13 18:11:10,14.98328062,0.0003435,70.0015,90.169,260.068,100.0091,-0.0003582,-4.364e-05,0.0,0 STARLINK-3083,1 49158U 21082AE  22317.75775870 -.00004364  00000-0 -35820-3 0  9991,2 49158  70.0015  90.1690 0003435 260.0680 100.0091 14.98328062 66033,6950.199000000001,96.107,574.451,569.6759999999998,0.0
49158.0,STARLINK-3083,PAYLOAD,2022-11-14 11:48:39,14.98336544,0.0003468,69.9996,88.3175,259.6443,100.4325,-2.5912e-07,-9.6e-07,0.0,0 STARLINK-3083,1 49158U 21082AE  22318.49211944 -.00000096  00000-0 -25912-6 0  9992,2 49158  69.9996  88.3175 0003468 259.6443 100.4325 14.98336544 66142,6950.1730000000025,96.107,574.448,569.627,0.0
49158.0,STARLINK-3083,PAYLOAD,2022-11-14 18:13:10,14.98341299,0.0003501,69.9995,87.6442,260.3277,99.7487,-1.5856e-05,-2.82e-06,0.0,0 STARLINK-3083,1 49158U 21082AE  22318.75915449 -.00000282  00000-0 -15856-4 0  9993,2 49158  69.9995  87.6442 0003501 260.3277  99.7487 14.98341299 66188,6950.158,96.106,574.456,569.59,0.0
49158.0,STARLINK-3083,PAYLOAD,2022-11-14 21:25:26,14.98342598,0.0003498999999999,69.9995,87.3074,260.3556,99.7208,-1.8566e-06,-1.15e-06,0.0,0 STARLINK-3083,1 49158U 21082AE  22318.89267223 -.00000115  00000-0 -18566-5 0  9995,2 49158  69.9995  87.3074 0003499 260.3556  99.7208 14.98342598 66209,6950.154,96.106,574.451,569.587,0.0
49158.0,STARLINK-3083,PAYLOAD,2022-11-15 11:50:39,14.9832937,0.0003508,69.9995,85.7924,260.0383,100.038,4.378100000000001e-05,4.29e-06,0.0,0 STARLINK-3083,1 49158U 21082AE  22319.49351622  .00000429  00000-0  43781-4 0  9991,2 49158  69.9995  85.7924 0003508 260.0383 100.0380 14.98329370 66290,6950.195,96.107,574.498,569.622,0.0
49158.0,STARLINK-3083,PAYLOAD,2022-11-15 13:26:47,14.9832921,0.0003509,69.9995,85.6241,260.0238,100.0525,4.2571e-05,4.15e-06,0.0,0 STARLINK-3083,1 49158U 21082AE  22319.56027668  .00000415  00000-0  42571-4 0  9990,2 49158  69.9995  85.6241 0003509 260.0238 100.0525 14.98329210 66307,6950.195,96.107,574.499,569.622,0.0
49158.0,STARLINK-3083,PAYLOAD,2022-11-15 18:15:12,14.98324979,0.0003493,69.9996,85.1192,260.056,100.0205,0.00011166,1.239e-05,0.0,0 STARLINK-3083,1 49158U 21082AE  22319.76055861  .00001239  00000-0  11166-3 0  9998,2 49158  69.9996  85.1192 0003493 260.0560 100.0205 14.98324979 66333,6950.208000000001,96.107,574.501,569.646,0.0
49158.0,STARLINK-3083,PAYLOAD,2022-11-16 10:16:32,14.98334922,0.0003484,69.9997,83.436,259.9944,100.0822,0.00010831,1.2e-05,0.0,0 STARLINK-3083,1 49158U 21082AE  22320.42815222  .00001200  00000-0  10831-3 0  9994,2 49158  69.9997  83.4360 0003484 259.9944 100.0822 14.98334922 66430,6950.178000000001,96.107,574.464,569.621,0.0
49158.0,STARLINK-3083,PAYLOAD,2022-11-16 18:17:12,14.98336513,0.0003485,69.9998,82.5944,260.0538,100.0228,0.00010197,1.124e-05,0.0,0 STARLINK-3083,1 49158U 21082AE  22320.76195042  .00001124  00000-0  10197-3 0  9992,2 49158  69.9998  82.5944 0003485 260.0538 100.0228 14.98336513 66485,6950.1730000000025,96.107,574.46,569.616,0.0
49158.0,STARLINK-3083,PAYLOAD,2022-11-17 08:42:24,14.98340842,0.0003319,69.9999,81.0787,259.5909,100.4876,7.206399999999999e-05,7.67e-06,0.0,0 STARLINK-3083,1 49158U 21082AE  22321.36278573  .00000767  00000-0  72064-4 0  9994,2 49158  69.9999  81.0787 0003319 259.5909 100.4876 14.98340842 66579,6950.159000000002,96.106,574.331,569.7180000000002,0.0
49158.0,STARLINK-3083,PAYLOAD,2022-11-17 15:06:56,14.98368166,0.0003044,69.9996,80.4073,250.5271,109.5559,-0.00059158,-7.151e-05,0.0,0 STARLINK-3083,1 49158U 21082AE  22321.62982228 -.00007151  00000-0 -59158-3 0  9996,2 49158  69.9996  80.4073 0003044 250.5271 109.5559 14.98368166 66617,6950.075,96.105,574.055,569.8240000000002,0.0
49158.0,STARLINK-3083,PAYLOAD,2022-11-17 18:19:13,14.98326235,0.0003281,69.9999,80.0695,262.0285,98.0501,3.8222e-05,3.63e-06,0.0,0 STARLINK-3083,1 49158U 21082AE  22321.76335497  .00000363  00000-0  38222-4 0  9997,2 49158  69.9999  80.0695 0003281 262.0285  98.0501 14.98326235 66634,6950.205,96.107,574.35,569.789,0.0
